{
  "type": "FeatureCollection",
  "features": [
    {
      "type": "Feature",
      "properties": {
        "norad_id": 35052,
        "name": "IRIDIUM 33 DEB",
        "group": "iridium-33-debris",
        "lat": 55.838620985728355,
        "lon": 21.164566283993693,
        "alt_km": 748.748631394089,
        "timestamp": "2025-12-23T18:59:32.350038+00:00",
        "meta_object_name": "IRIDIUM 33 DEB",
        "meta_object_id": "1997-051NY",
        "meta_epoch": "2025-12-22T19:21:39.718080",
        "meta_mean_motion": 14.38503197,
        "meta_eccentricity": 0.0013247,
        "meta_inclination": 86.3299,
        "meta_ra_of_asc_node": 16.1594,
        "meta_arg_of_pericenter": 56.9072,
        "meta_mean_anomaly": 303.3396,
        "meta_ephemeris_type": 0,
        "meta_classification_type": "U",
        "meta_norad_cat_id": 35052,
        "meta_element_set_no": 999,
        "meta_rev_at_epoch": 87420,
        "meta_bstar": 0.0001619794,
        "meta_mean_motion_dot": 5.15e-06,
        "meta_mean_motion_ddot": 0,
        "tle_line1": "1 35052U 97051NY  25356.80670970  .00000515  00000+0  16198-3 0  9993",
        "tle_line2": "2 35052  86.3299  16.1594 0013247  56.9072 303.3396 14.38503197874205"
      },
      "geometry": {
        "type": "Point",
        "coordinates": [
          21.164566283993693,
          55.838620985728355
        ]
      }
    },
    {
      "type": "Feature",
      "properties": {
        "norad_id": 35080,
        "name": "IRIDIUM 33 DEB",
        "group": "iridium-33-debris",
        "lat": -15.187171800739405,
        "lon": 46.05797240921514,
        "alt_km": 648.9249112066045,
        "timestamp": "2025-12-23T18:59:32.350047+00:00",
        "meta_object_name": "IRIDIUM 33 DEB",
        "meta_object_id": "1997-051PF",
        "meta_epoch": "2025-12-22T02:41:19.588992",
        "meta_mean_motion": 14.87041021,
        "meta_eccentricity": 0.005881,
        "meta_inclination": 86.2075,
        "meta_ra_of_asc_node": 47.8936,
        "meta_arg_of_pericenter": 147.3702,
        "meta_mean_anomaly": 213.1179,
        "meta_ephemeris_type": 0,
        "meta_classification_type": "U",
        "meta_norad_cat_id": 35080,
        "meta_element_set_no": 999,
        "meta_rev_at_epoch": 69827,
        "meta_bstar": 0.0071992624,
        "meta_mean_motion_dot": 0.00067147,
        "meta_mean_motion_ddot": 0,
        "tle_line1": "1 35080U 97051PF  25356.11203228  .00067147  00000+0  71993-2 0  9993",
        "tle_line2": "2 35080  86.2075  47.8936 0058810 147.3702 213.1179 14.87041021698273"
      },
      "geometry": {
        "type": "Point",
        "coordinates": [
          46.05797240921514,
          -15.187171800739405
        ]
      }
    },
    {
      "type": "Feature",
      "properties": {
        "norad_id": 35297,
        "name": "IRIDIUM 33 DEB",
        "group": "iridium-33-debris",
        "lat": -48.595321521346314,
        "lon": -117.84749910279164,
        "alt_km": 755.0851077708239,
        "timestamp": "2025-12-23T18:59:32.350056+00:00",
        "meta_object_name": "IRIDIUM 33 DEB",
        "meta_object_id": "1997-051PM",
        "meta_epoch": "2025-12-22T21:59:54.464640",
        "meta_mean_motion": 14.45198443,
        "meta_eccentricity": 0.0018277,
        "meta_inclination": 86.3852,
        "meta_ra_of_asc_node": 58.4147,
        "meta_arg_of_pericenter": 110.0569,
        "meta_mean_anomaly": 250.2602,
        "meta_ephemeris_type": 0,
        "meta_classification_type": "U",
        "meta_norad_cat_id": 35297,
        "meta_element_set_no": 999,
        "meta_rev_at_epoch": 70573,
        "meta_bstar": 0.00060275,
        "meta_mean_motion_dot": 2.134e-05,
        "meta_mean_motion_ddot": 0,
        "tle_line1": "1 35297U 97051PM  25356.91660260  .00002134  00000+0  60275-3 0  9991",
        "tle_line2": "2 35297  86.3852  58.4147 0018277 110.0569 250.2602 14.45198443705738"
      },
      "geometry": {
        "type": "Point",
        "coordinates": [
          -117.84749910279164,
          -48.595321521346314
        ]
      }
    },
    {
      "type": "Feature",
      "properties": {
        "norad_id": 35299,
        "name": "IRIDIUM 33 DEB",
        "group": "iridium-33-debris",
        "lat": -9.978738565500448,
        "lon": 27.71987860934789,
        "alt_km": 750.015293606235,
        "timestamp": "2025-12-23T18:59:32.350065+00:00",
        "meta_object_name": "IRIDIUM 33 DEB",
        "meta_object_id": "1997-051PP",
        "meta_epoch": "2025-12-23T02:37:39.072000",
        "meta_mean_motion": 14.40910271,
        "meta_eccentricity": 0.00585818,
        "meta_inclination": 86.2874,
        "meta_ra_of_asc_node": 28.6713,
        "meta_arg_of_pericenter": 69.2338,
        "meta_mean_anomaly": 346.7507,
        "meta_ephemeris_type": 0,
        "meta_classification_type": "U",
        "meta_norad_cat_id": 35299,
        "meta_element_set_no": 999,
        "meta_rev_at_epoch": 86480,
        "meta_bstar": 0.00082085889,
        "meta_mean_motion_dot": 2.707e-05,
        "meta_mean_motion_ddot": 0,
        "tle_line1": "1 35299U 97051PP  25357.10948000  .00002707  00000+0  82086-3 0  9996",
        "tle_line2": "2 35299  86.2874  28.6713 0058581  69.2338 346.7507 14.40910271864807"
      },
      "geometry": {
        "type": "Point",
        "coordinates": [
          27.71987860934789,
          -9.978738565500448
        ]
      }
    },
    {
      "type": "Feature",
      "properties": {
        "norad_id": 35480,
        "name": "IRIDIUM 33 DEB",
        "group": "iridium-33-debris",
        "lat": 83.28749421735536,
        "lon": 52.895116427182906,
        "alt_km": 707.9197311801099,
        "timestamp": "2025-12-23T18:59:32.350074+00:00",
        "meta_object_name": "IRIDIUM 33 DEB",
        "meta_object_id": "1997-051QA",
        "meta_epoch": "2025-12-15T08:30:57.118464",
        "meta_mean_motion": 14.49774703,
        "meta_eccentricity": 0.00160032,
        "meta_inclination": 86.3571,
        "meta_ra_of_asc_node": 23.7786,
        "meta_arg_of_pericenter": 97.0457,
        "meta_mean_anomaly": 263.2568,
        "meta_ephemeris_type": 0,
        "meta_classification_type": "U",
        "meta_norad_cat_id": 35480,
        "meta_element_set_no": 999,
        "meta_rev_at_epoch": 87069,
        "meta_bstar": 0.00045738518,
        "meta_mean_motion_dot": 1.785e-05,
        "meta_mean_motion_ddot": 0,
        "tle_line1": "1 35480U 97051QA  25349.35482776  .00001785  00000+0  45739-3 0  9998",
        "tle_line2": "2 35480  86.3571  23.7786 0016003  97.0457 263.2568 14.49774703870695"
      },
      "geometry": {
        "type": "Point",
        "coordinates": [
          52.895116427182906,
          83.28749421735536
        ]
      }
    },
    {
      "type": "Feature",
      "properties": {
        "norad_id": 35484,
        "name": "IRIDIUM 33 DEB",
        "group": "iridium-33-debris",
        "lat": 43.02655211571079,
        "lon": -9.021701622136415,
        "alt_km": 553.8075923112083,
        "timestamp": "2025-12-23T18:59:32.350083+00:00",
        "meta_object_name": "IRIDIUM 33 DEB",
        "meta_object_id": "1997-051QE",
        "meta_epoch": "2025-12-23T05:59:10.354560",
        "meta_mean_motion": 14.99264182,
        "meta_eccentricity": 0.00245796,
        "meta_inclination": 86.3609,
        "meta_ra_of_asc_node": 347.8264,
        "meta_arg_of_pericenter": 91.5392,
        "meta_mean_anomaly": 268.8655,
        "meta_ephemeris_type": 0,
        "meta_classification_type": "U",
        "meta_norad_cat_id": 35484,
        "meta_element_set_no": 999,
        "meta_rev_at_epoch": 62173,
        "meta_bstar": 0.0029536278,
        "meta_mean_motion_dot": 0.00036413,
        "meta_mean_motion_ddot": 0,
        "tle_line1": "1 35484U 97051QE  25357.24942540  .00036413  00000+0  29536-2 0  9991",
        "tle_line2": "2 35484  86.3609 347.8264 0024579  91.5392 268.8655 14.99264182621733"
      },
      "geometry": {
        "type": "Point",
        "coordinates": [
          -9.021701622136415,
          43.02655211571079
        ]
      }
    },
    {
      "type": "Feature",
      "properties": {
        "norad_id": 35488,
        "name": "IRIDIUM 33 DEB",
        "group": "iridium-33-debris",
        "lat": -65.36114458389923,
        "lon": 123.83770176120119,
        "alt_km": 636.2855582489465,
        "timestamp": "2025-12-23T18:59:32.350092+00:00",
        "meta_object_name": "IRIDIUM 33 DEB",
        "meta_object_id": "1997-051QJ",
        "meta_epoch": "2025-12-22T19:13:13.565280",
        "meta_mean_motion": 14.8329676,
        "meta_eccentricity": 0.00284188,
        "meta_inclination": 86.3248,
        "meta_ra_of_asc_node": 296.2385,
        "meta_arg_of_pericenter": 9.7501,
        "meta_mean_anomaly": 350.4267,
        "meta_ephemeris_type": 0,
        "meta_classification_type": "U",
        "meta_norad_cat_id": 35488,
        "meta_element_set_no": 999,
        "meta_rev_at_epoch": 88415,
        "meta_bstar": 0.0016428334,
        "meta_mean_motion_dot": 0.00013576,
        "meta_mean_motion_ddot": 0,
        "tle_line1": "1 35488U 97051QJ  25356.80085145  .00013576  00000+0  16428-2 0  9996",
        "tle_line2": "2 35488  86.3248 296.2385 0028418   9.7501 350.4267 14.83296760884150"
      },
      "geometry": {
        "type": "Point",
        "coordinates": [
          123.83770176120119,
          -65.36114458389923
        ]
      }
    }
  ]
}